NORAD_CAT_ID,OBJECT_NAME,OBJECT_TYPE,EPOCH,MEAN_MOTION,ECCENTRICITY,INCLINATION,RA_OF_ASC_NODE,ARG_OF_PERICENTER,MEAN_ANOMALY,BSTAR,MEAN_MOTION_DOT,MEAN_MOTION_DDOT,TLE_LINE0,TLE_LINE1,TLE_LINE2,SEMIMAJOR_AXIS,PERIOD,APOGEE,PERIGEE,DECAYED
52838.0,STARLINK-4092,PAYLOAD,2023-03-06 15:05:11,15.08847897,0.0001445,53.2145,287.9857,59.6992,300.4143,0.00045625,6.982e-05,0.0,0 STARLINK-4092,1 52838U 22062J   23065.62860121  .00006982  00000-0  45625-3 0  9990,2 52838  53.2145 287.9857 0001445  59.6992 300.4143 15.08847897 40352,6917.856,95.437,540.721,538.722,0.0
52838.0,STARLINK-4092,PAYLOAD,2023-03-07 21:17:30,15.088541,0.0001337,53.2144,282.3366,86.5195,273.595,0.00060136,9.299e-05,0.0,0 STARLINK-4092,1 52838U 22062J   23066.88715714  .00009299  00000-0  60136-3 0  9994,2 52838  53.2144 282.3366 0001337  86.5195 273.5950 15.08854100 40541,6917.837,95.437,540.627,538.777,0.0
52838.0,STARLINK-4092,PAYLOAD,2023-03-08 21:08:17,15.08852826,0.0002374,53.2156,277.8744,92.9687,267.1576,0.0011668,0.00018337,0.0,0 STARLINK-4092,1 52838U 22062J   23067.88076296  .00018337  00000-0  11668-2 0  9998,2 52838  53.2156 277.8744 0002374  92.9687 267.1576 15.08852826 40201,6917.841,95.437,541.348,538.064,0.0
52838.0,STARLINK-4092,PAYLOAD,2023-03-08 22:43:41,15.08850891,0.0001078,53.2155,277.5774,77.3464,282.7648,0.001092,0.00017139,0.0,0 STARLINK-4092,1 52838U 22062J   23067.94700308  .00017139  00000-0  10920-2 0  9992,2 52838  53.2155 277.5774 0001078  77.3464 282.7648 15.08850891 40708,6917.847,95.437,540.458,538.966,0.0
52838.0,STARLINK-4092,PAYLOAD,2023-03-09 19:23:41,15.08853309,0.0001216,53.2144,273.7113,77.0497,283.0631,0.00075022,0.00011676,0.0,0 STARLINK-4092,1 52838U 22062J   23068.80812156  .00011676  00000-0  75022-3 0  9998,2 52838  53.2144 273.7113 0001216  77.0497 283.0631 15.08853309 40835,6917.84,95.437,540.546,538.863,0.0
52838.0,STARLINK-4092,PAYLOAD,2023-03-09 20:59:04,15.08856276,0.0001213,53.2145,273.4138,72.4246,287.6879,0.00081649,0.00012736,0.0,0 STARLINK-4092,1 52838U 22062J   23068.87436077  .00012736  00000-0  81649-3 0  9999,2 52838  53.2145 273.4138 0001213  72.4246 287.6879 15.08856276 40355,6917.831,95.437,540.535,538.857,0.0
52838.0,STARLINK-4092,PAYLOAD,2023-03-10 00:09:50,15.08872126,0.000128,53.2139,272.8171,66.9011,293.2116,0.001438,0.00022692,0.0,0 STARLINK-4092,1 52838U 22062J   23069.00683762  .00022692  00000-0  14380-2 0  9999,2 52838  53.2139 272.8171 0001280  66.9011 293.2116 15.08872126 40865,6917.782,95.436,540.533,538.762,0.0
52838.0,STARLINK-4092,PAYLOAD,2023-03-10 06:31:23,15.08851411,8.36e-05,53.2134,271.6289,91.1889,268.9199,-7.8416e-05,-1.536e-05,0.0,0 STARLINK-4092,1 52838U 22062J   23069.27179959 -.00001536  00000-0 -78416-4 0  9994,2 52838  53.2134 271.6289 0000836  91.1889 268.9199 15.08851411 40905,6917.846,95.437,540.289,539.132,0.0
52838.0,STARLINK-4092,PAYLOAD,2023-03-10 19:14:28,15.08838796,0.0001102,53.2145,269.2501,89.6715,270.4403,0.00017611,2.516e-05,0.0,0 STARLINK-4092,1 52838U 22062J   23069.80172362  .00002516  00000-0  17611-3 0  9990,2 52838  53.2145 269.2501 0001102  89.6715 270.4403 15.08838796 40989,6917.884,95.438,540.511,538.987,0.0
52838.0,STARLINK-4092,PAYLOAD,2023-03-10 20:49:52,15.08838825,0.0001151,53.2151,268.9535,87.8814,272.231,0.00023482,3.451e-05,0.0,0 STARLINK-4092,1 52838U 22062J   23069.86796419  .00003451  00000-0  23482-3 0  9993,2 52838  53.2151 268.9535 0001151  87.8814 272.2310 15.08838825 40501,6917.884,95.438,540.545,538.953,0.0
52838.0,STARLINK-4092,PAYLOAD,2023-03-11 12:43:43,15.08838353,0.000105,53.2143,265.98,92.2361,267.8752,0.00060723,9.389e-05,0.0,0 STARLINK-4092,1 52838U 22062J   23070.53036850  .00009389  00000-0  60723-3 0  9990,2 52838  53.2143 265.9800 0001050  92.2361 267.8752 15.08838353 40606,6917.885,95.438,540.477,539.024,0.0
52838.0,STARLINK-4092,PAYLOAD,2023-03-11 22:16:02,15.08844748,0.0001013,53.2145,264.1957,90.9591,269.1517,0.00057134,8.818e-05,0.0,0 STARLINK-4092,1 52838U 22062J   23070.92780767  .00008818  00000-0  57134-3 0  9994,2 52838  53.2145 264.1957 0001013  90.9591 269.1517 15.08844748 41151,6917.866,95.437,540.432,539.03,0.0
52838.0,STARLINK-4092,PAYLOAD,2023-03-12 18:56:03,15.08842407,0.0001175,53.2156,260.3299,81.4185,278.694,0.00028461,4.245e-05,0.0,0 STARLINK-4092,1 52838U 22062J   23071.78893113  .00004245  00000-0  28461-3 0  9990,2 52838  53.2156 260.3299 0001175  81.4185 278.6940 15.08842407 41282,6917.873,95.437,540.551,538.925,0.0
52838.0,STARLINK-4092,PAYLOAD,2023-03-13 12:25:18,15.08837135,0.0001163,53.2151,257.0571,72.1437,287.9681,4.9687e-05,5.03e-06,0.0,0 STARLINK-4092,1 52838U 22062J   23072.51757409  .00000503  00000-0  49687-4 0  9996,2 52838  53.2151 257.0571 0001163  72.1437 287.9681 15.08837135 41396,6917.889,95.438,540.559,538.95,0.0
52838.0,STARLINK-4092,PAYLOAD,2023-03-13 21:57:36,15.08845911,0.000129,53.2153,255.2725,81.5622,278.5517,0.00013872,1.921e-05,0.0,0 STARLINK-4092,1 52838U 22062J   23072.91501053  .00001921  00000-0  13872-3 0  9993,2 52838  53.2153 255.2725 0001290  81.5622 278.5517 15.08845911 40967,6917.862,95.437,540.62,538.835,0.0
52838.0,STARLINK-4092,PAYLOAD,2023-03-14 12:16:05,15.08847038,0.0001235,53.2153,252.5961,70.3912,289.7214,0.00024327,3.587e-05,0.0,0 STARLINK-4092,1 52838U 22062J   23073.51117063  .00003587  00000-0  24327-3 0  9991,2 52838  53.2153 252.5961 0001235  70.3912 289.7214 15.08847038 41057,6917.859,95.437,540.578,538.87,0.0
52838.0,STARLINK-4092,PAYLOAD,2023-03-14 20:13:00,15.08862148,0.0001141,53.2155,251.1092,74.3653,285.7465,0.00050213,7.717e-05,0.0,0 STARLINK-4092,1 52838U 22062J   23073.84236339  .00007717  00000-0  50213-3 0  9997,2 52838  53.2155 251.1092 0001141  74.3653 285.7465 15.08862148 41100,6917.813,95.436,540.467,538.888,0.0
52838.0,STARLINK-4092,PAYLOAD,2023-03-15 04:09:56,15.08842472,0.0001273,53.2148,249.6224,79.9777,280.1359,-2.1477e-05,-6.3e-06,0.0,0 STARLINK-4092,1 52838U 22062J   23074.17356758 -.00000630  00000-0 -21477-4 0  9992,2 52838  53.2148 249.6224 0001273  79.9777 280.1359 15.08842472 41643,6917.873,95.437,540.618,538.857,0.0
52838.0,STARLINK-4092,PAYLOAD,2023-03-15 12:06:51,15.08856845,0.0001241,53.2154,248.1355,77.186,282.927,0.00044036,6.731e-05,0.0,0 STARLINK-4092,1 52838U 22062J   23074.50476304  .00006731  00000-0  44036-3 0  9990,2 52838  53.2154 248.1355 0001241  77.1860 282.9270 15.08856845 41693,6917.829,95.436,540.552,538.835,0.0
52838.0,STARLINK-4092,PAYLOAD,2023-03-15 13:42:14,15.0886139,0.0001245,53.2154,247.8381,77.2625,282.8506,0.00064149,9.942e-05,0.0,0 STARLINK-4092,1 52838U 22062J   23074.57100200  .00009942  00000-0  64149-3 0  9990,2 52838  53.2154 247.8381 0001245  77.2625 282.8506 15.08861390 41212,6917.815,95.436,540.541,538.819,0.0
52838.0,STARLINK-4092,PAYLOAD,2023-03-15 21:39:09,15.08869511,0.0001209,53.2152,246.3519,78.8038,281.309,0.0014831,0.00023413,0.0,0 STARLINK-4092,1 52838U 22062J   23074.90219723  .00023413  00000-0  14831-2 0  9999,2 52838  53.2152 246.3519 0001209  78.8038 281.3090 15.08869511 41262,6917.79,95.436,540.492,538.819,0.0
52838.0,STARLINK-4092,PAYLOAD,2023-03-16 04:00:43,15.0882583,0.0001388,53.2154,245.1621,84.1549,275.9601,-0.00061273,-0.00010022,0.0,0 STARLINK-4092,1 52838U 22062J   23075.16716546 -.00010022  00000-0 -61273-3 0  9990,2 52838  53.2154 245.1621 0001388  84.1549 275.9601 15.08825830 41791,6917.924,95.438,540.749,538.828,0.0
52838.0,STARLINK-4092,PAYLOAD,2023-03-16 13:33:02,15.08827541,0.0001176,53.215,243.3783,103.6213,256.491,0.00078071,0.00012155,0.0,0 STARLINK-4092,1 52838U 22062J   23075.56460804  .00012155  00000-0  78071-3 0  9998,2 52838  53.2150 243.3783 0001176 103.6213 256.4910 15.08827541 41367,6917.918,95.438,540.597,538.97,0.0
52838.0,STARLINK-4092,PAYLOAD,2023-03-16 21:29:58,15.08832828,0.0001151,53.2149,241.8915,102.3222,257.7899,0.0014833,0.00023393,0.0,0 STARLINK-4092,1 52838U 22062J   23075.89581101  .00023393  00000-0  14833-2 0  9999,2 52838  53.2149 241.8915 0001151 102.3222 257.7899 15.08832828 41908,6917.902,95.438,540.564,538.971,0.0
52838.0,STARLINK-4092,PAYLOAD,2023-03-17 05:26:53,15.08832791,0.0001138,53.2146,240.4048,100.5421,259.5699,0.00079053,0.00012313,0.0,0 STARLINK-4092,1 52838U 22062J   23076.22701377  .00012313  00000-0  79053-3 0  9992,2 52838  53.2146 240.4048 0001138 100.5421 259.5699 15.08832791 41955,6917.902,95.438,540.555,538.98,0.0
52838.0,STARLINK-4092,PAYLOAD,2023-03-17 13:23:49,15.08839644,0.0001142,53.2145,238.9182,98.5584,261.5537,0.00098649,0.00015447,0.0,0 STARLINK-4092,1 52838U 22062J   23076.55821568  .00015447  00000-0  98649-3 0  9996,2 52838  53.2145 238.9182 0001142  98.5584 261.5537 15.08839644 41516,6917.881,95.438,540.536,538.956,0.0
52838.0,STARLINK-4092,PAYLOAD,2023-03-17 19:45:22,15.08851361,0.0001122,53.2143,237.7289,94.3813,265.7307,0.0012956,0.00020398,0.0,0 STARLINK-4092,1 52838U 22062J   23076.82317386  .00020398  00000-0  12956-2 0  9991,2 52838  53.2143 237.7289 0001122  94.3813 265.7307 15.08851361 41551,6917.846,95.437,540.487,538.934,0.0
52838.0,STARLINK-4092,PAYLOAD,2023-03-18 03:42:18,15.08841718,0.0001145,53.2144,236.2413,92.2397,267.8726,0.00040823,6.215e-05,0.0,0 STARLINK-4092,1 52838U 22062J   23077.15437544  .00006215  00000-0  40823-3 0  9994,2 52838  53.2144 236.2413 0001145  92.2397 267.8726 15.08841718 42097,6917.875,95.437,540.532,538.948,0.0
52838.0,STARLINK-4092,PAYLOAD,2023-03-18 21:11:31,15.0886845,0.0001227,53.2145,232.9706,88.5259,271.5874,0.0010346,0.00016229,0.0,0 STARLINK-4092,1 52838U 22062J   23077.88300748  .00016229  00000-0  10346-2 0  9991,2 52838  53.2145 232.9706 0001227  88.5259 271.5874 15.08868450 42203,6917.793,95.436,540.507,538.81,0.0
52838.0,STARLINK-4092,PAYLOAD,2023-03-19 05:08:28,15.08837672,0.0001224,53.2146,231.4835,81.4586,278.6545,-6.1426e-05,-1.265e-05,0.0,0 STARLINK-4092,1 52838U 22062J   23078.21421339 -.00001265  00000-0 -61426-4 0  9992,2 52838  53.2146 231.4835 0001224  81.4586 278.6545 15.08837672 42253,6917.888,95.438,540.599,538.906,0.0
